{
  "norad_id": 45535,
  "name": "STARLINK-1350",
  "history": [
    {
      "epoch": "2026-03-28T21:58:50.904480Z",
      "apogee_km": 457.6669929540021,
      "perigee_km": 454.72549592559517,
      "latitude_deg": -6.507693438010797e-05,
      "longitude_deg": 146.77499377178057,
      "height_km": 457.5064134558997,
      "semi_major_axis_km": 6834.333244439798,
      "eccentricity": 0.0002152,
      "inclination_deg": 53.0734,
      "raan_deg": 302.8166,
      "arg_perigee_deg": 106.5955,
      "mean_anomaly_deg": 253.5283,
      "mean_motion_rev_day": 15.36591884
    }
  ]
}